{
    "links": {
        "self": "http://www.neowsapp.com/rest/v1/neo/3614982?api_key=iIulBulltgU6a56xZRHN4H3l9WmuAYTsLGpBGhQ2"
    },
    "id": "3614982",
    "neo_reference_id": "3614982",
    "name": "(2012 UV158)",
    "designation": "2012 UV158",
    "nasa_jpl_url": "http://ssd.jpl.nasa.gov/sbdb.cgi?sstr=3614982",
    "absolute_magnitude_h": 24.4,
    "estimated_diameter": {
        "kilometers": {
            "estimated_diameter_min": 0.0350392641,
            "estimated_diameter_max": 0.0783501764
        },
        "meters": {
            "estimated_diameter_min": 35.0392641108,
            "estimated_diameter_max": 78.3501764334
        },
        "miles": {
            "estimated_diameter_min": 0.0217723826,
            "estimated_diameter_max": 0.0486845275
        },
        "feet": {
            "estimated_diameter_min": 114.9582192654,
            "estimated_diameter_max": 257.0543928497
        }
    },
    "is_potentially_hazardous_asteroid": false,
    "close_approach_data": [
        {
            "close_approach_date": "2012-10-25",
            "close_approach_date_full": "2012-Oct-25 04:31",
            "epoch_date_close_approach": 1351139460000,
            "relative_velocity": {
                "kilometers_per_second": "12.7905199274",
                "kilometers_per_hour": "46045.8717387818",
                "miles_per_hour": "28611.1140256892"
            },
            "miss_distance": {
                "astronomical": "0.038337135",
                "lunar": "14.913145515",
                "kilometers": "5735153.73790245",
                "miles": "3563659.28365581"
            },
            "orbiting_body": "Earth"
        }
    ],
    "orbital_data": {
        "orbit_id": "6",
        "orbit_determination_date": "2017-04-06 08:48:18",
        "first_observation_date": "2012-10-25",
        "last_observation_date": "2012-11-01",
        "data_arc_in_days": 7,
        "observations_used": 36,
        "orbit_uncertainty": "8",
        "minimum_orbit_intersection": ".0383023",
        "jupiter_tisserand_invariant": "4.365",
        "epoch_osculation": "2456227.5",
        "eccentricity": ".3303953975784996",
        "semi_major_axis": "1.523662490340474",
        "inclination": "21.56009467335209",
        "ascending_node_longitude": "213.224536530884",
        "orbital_period": "686.9602234244777",
        "perihelion_distance": "1.020251416068986",
        "perihelion_argument": "161.5557539608279",
        "aphelion_distance": "2.027073564611961",
        "perihelion_time": "2456210.117263931457",
        "mean_anomaly": "9.109384752264978",
        "mean_motion": ".5240478090644171",
        "equinox": "J2000",
        "orbit_class": {
            "orbit_class_type": "AMO",
            "orbit_class_description": "Near-Earth asteroid orbits similar to that of 1221 Amor",
            "orbit_class_range": "1.017 AU < q (perihelion) < 1.3 AU"
        }
    },
    "is_sentry_object": false
}